{
  "links" : {
    "next" : "https://api.nasa.gov/neo/rest/v1/feed?start_date=1996-02-09&end_date=1996-02-09&detailed=true&api_key=t0TVs3DtDT2H8Oy2Zy8m2eVrNsAVKAexjcZXUckd",
    "prev" : "https://api.nasa.gov/neo/rest/v1/feed?start_date=1996-02-07&end_date=1996-02-07&detailed=true&api_key=t0TVs3DtDT2H8Oy2Zy8m2eVrNsAVKAexjcZXUckd",
    "self" : "https://api.nasa.gov/neo/rest/v1/feed?start_date=1996-02-08&end_date=1996-02-08&detailed=true&api_key=t0TVs3DtDT2H8Oy2Zy8m2eVrNsAVKAexjcZXUckd"
  },
  "element_count" : 6,
  "near_earth_objects" : {
    "1996-02-08" : [ {
      "links" : {
        "self" : "https://api.nasa.gov/neo/rest/v1/neo/3560922?api_key=t0TVs3DtDT2H8Oy2Zy8m2eVrNsAVKAexjcZXUckd"
      },
      "neo_reference_id" : "3560922",
      "name" : "(2011 GE2)",
      "nasa_jpl_url" : "http://ssd.jpl.nasa.gov/sbdb.cgi?sstr=3560922",
      "absolute_magnitude_h" : 20.0,
      "estimated_diameter" : {
        "kilometers" : {
          "estimated_diameter_min" : 0.2658,
          "estimated_diameter_max" : 0.5943468684
        },
        "meters" : {
          "estimated_diameter_min" : 265.8,
          "estimated_diameter_max" : 594.3468684194
        },
        "miles" : {
          "estimated_diameter_min" : 0.1651604118,
          "estimated_diameter_max" : 0.369309908
        },
        "feet" : {
          "estimated_diameter_min" : 872.047272,
          "estimated_diameter_max" : 1949.9569797852
        }
      },
      "is_potentially_hazardous_asteroid" : false,
      "close_approach_data" : [ {
        "close_approach_date" : "1996-02-08",
        "epoch_date_close_approach" : 823766400000,
        "relative_velocity" : {
          "kilometers_per_second" : "12.9438284636",
          "kilometers_per_hour" : "46597.7824691234",
          "miles_per_hour" : "28954.0498903284"
        },
        "miss_distance" : {
          "astronomical" : "0.2366039814",
          "lunar" : "92.0389480591",
          "kilometers" : "35395452",
          "miles" : "21993714"
        },
        "orbiting_body" : "Earth"
      } ],
      "orbital_data" : {
        "orbit_id" : "17",
        "orbit_determination_date" : "2017-04-06 08:53:53",
        "orbit_uncertainty" : "1",
        "minimum_orbit_intersection" : ".196219",
        "jupiter_tisserand_invariant" : "4.579",
        "epoch_osculation" : "2458000.5",
        "eccentricity" : ".5120982014772705",
        "semi_major_axis" : "1.400040682673373",
        "inclination" : "14.57196829619105",
        "ascending_node_longitude" : "23.62171846827058",
        "orbital_period" : "605.0752799247184",
        "perihelion_distance" : ".6830823670813287",
        "perihelion_argument" : "30.22701971242788",
        "aphelion_distance" : "2.116998998265417",
        "perihelion_time" : "2457929.182373806831",
        "mean_anomaly" : "42.43165483927063",
        "mean_motion" : ".5949672907556066",
        "equinox" : "J2000"
      }
    }, {
      "links" : {
        "self" : "https://api.nasa.gov/neo/rest/v1/neo/3723951?api_key=t0TVs3DtDT2H8Oy2Zy8m2eVrNsAVKAexjcZXUckd"
      },
      "neo_reference_id" : "3723951",
      "name" : "(2015 NJ3)",
      "nasa_jpl_url" : "http://ssd.jpl.nasa.gov/sbdb.cgi?sstr=3723951",
      "absolute_magnitude_h" : 20.5,
      "estimated_diameter" : {
        "kilometers" : {
          "estimated_diameter_min" : 0.2111324448,
          "estimated_diameter_max" : 0.4721064988
        },
        "meters" : {
          "estimated_diameter_min" : 211.1324447897,
          "estimated_diameter_max" : 472.1064988055
        },
        "miles" : {
          "estimated_diameter_min" : 0.1311915784,
          "estimated_diameter_max" : 0.2933532873
        },
        "feet" : {
          "estimated_diameter_min" : 692.6917701639,
          "estimated_diameter_max" : 1548.9058855411
        }
      },
      "is_potentially_hazardous_asteroid" : true,
      "close_approach_data" : [ {
        "close_approach_date" : "1996-02-08",
        "epoch_date_close_approach" : 823766400000,
        "relative_velocity" : {
          "kilometers_per_second" : "32.3499906347",
          "kilometers_per_hour" : "116459.9662847533",
          "miles_per_hour" : "72363.6940506569"
        },
        "miss_distance" : {
          "astronomical" : "0.3711617944",
          "lunar" : "144.381942749",
          "kilometers" : "55525012",
          "miles" : "34501644"
        },
        "orbiting_body" : "Earth"
      } ],
      "orbital_data" : {
        "orbit_id" : "11",
        "orbit_determination_date" : "2017-04-06 08:32:49",
        "orbit_uncertainty" : "4",
        "minimum_orbit_intersection" : ".0484137",
        "jupiter_tisserand_invariant" : "3.908",
        "epoch_osculation" : "2458000.5",
        "eccentricity" : ".6711475607345625",
        "semi_major_axis" : "1.688089846661504",
        "inclination" : "12.27143257831406",
        "ascending_node_longitude" : "134.4972866968478",
        "orbital_period" : "801.1092815969854",
        "perihelion_distance" : ".5551324637738538",
        "perihelion_argument" : "251.3421943530363",
        "aphelion_distance" : "2.821047229549154",
        "perihelion_time" : "2458090.431365018055",
        "mean_anomaly" : "319.5869225956779",
        "mean_motion" : ".449376893102963",
        "equinox" : "J2000"
      }
    }, {
      "links" : {
        "self" : "https://api.nasa.gov/neo/rest/v1/neo/3741556?api_key=t0TVs3DtDT2H8Oy2Zy8m2eVrNsAVKAexjcZXUckd"
      },
      "neo_reference_id" : "3741556",
      "name" : "(2016 BR80)",
      "nasa_jpl_url" : "http://ssd.jpl.nasa.gov/sbdb.cgi?sstr=3741556",
      "absolute_magnitude_h" : 21.3,
      "estimated_diameter" : {
        "kilometers" : {
          "estimated_diameter_min" : 0.1460679643,
          "estimated_diameter_max" : 0.3266178974
        },
        "meters" : {
          "estimated_diameter_min" : 146.0679642714,
          "estimated_diameter_max" : 326.6178974458
        },
        "miles" : {
          "estimated_diameter_min" : 0.090762397,
          "estimated_diameter_max" : 0.2029508896
        },
        "feet" : {
          "estimated_diameter_min" : 479.2256199,
          "estimated_diameter_max" : 1071.581062656
        }
      },
      "is_potentially_hazardous_asteroid" : true,
      "close_approach_data" : [ {
        "close_approach_date" : "1996-02-08",
        "epoch_date_close_approach" : 823766400000,
        "relative_velocity" : {
          "kilometers_per_second" : "11.2691646834",
          "kilometers_per_hour" : "40568.9928601687",
          "miles_per_hour" : "25207.9944802532"
        },
        "miss_distance" : {
          "astronomical" : "0.1788556381",
          "lunar" : "69.5748443604",
          "kilometers" : "26756424",
          "miles" : "16625671"
        },
        "orbiting_body" : "Earth"
      } ],
      "orbital_data" : {
        "orbit_id" : "13",
        "orbit_determination_date" : "2017-08-10 06:19:42",
        "orbit_uncertainty" : "5",
        "minimum_orbit_intersection" : ".0427367",
        "jupiter_tisserand_invariant" : "4.053",
        "epoch_osculation" : "2458000.5",
        "eccentricity" : ".4523207253538421",
        "semi_major_axis" : "1.70299590939779",
        "inclination" : "12.06866944543857",
        "ascending_node_longitude" : "8.788946167322639",
        "orbital_period" : "811.7435267883536",
        "perihelion_distance" : ".9326955643843559",
        "perihelion_argument" : "160.495989428116",
        "aphelion_distance" : "2.473296254411225",
        "perihelion_time" : "2458260.253455029182",
        "mean_anomaly" : "244.801983970872",
        "mean_motion" : ".4434898316027631",
        "equinox" : "J2000"
      }
    } ]
  }
}